IRIDIUM 119             
1 42959U 17061E   24321.37360400  .00000636  00000+0  21999-3 0  9996
2 42959  86.3949 266.6682 0002588  85.2230 274.9261 14.34215641371990
IRIDIUM 107             
1 42960U 17061F   24321.25308811  .00000576  00000+0  19878-3 0  9999
2 42960  86.3947 266.7364 0002556  76.7488 283.3993 14.34212780371989
IRIDIUM 132             
1 42961U 17061G   24321.39896529  .00000574  00000+0  19773-3 0  9995
2 42961  86.3948 266.6591 0002423  80.8370 279.3100 14.34214880372003
IRIDIUM 136             
1 42962U 17061H   24321.22138482  .00000286  00000+0  95205-4 0  9990
2 42962  86.3944 266.7375 0002555  83.0871 277.0615 14.34209841371992
IRIDIUM 139             
1 42963U 17061J   24321.36725782  .00000634  00000+0  21924-3 0  9994
2 42963  86.3949 266.7288 0002497  81.2879 278.8599 14.34218913372029
IRIDIUM 125             
1 42964U 17061K   24321.21502496  .00000480  00000+0  16422-3 0  9990
2 42964  86.3949 266.8428 0002903  84.6642 275.4885 14.34212767372015
IRIDIUM 135             
1 43070U 17083A   24321.39846363  .00000579  00000+0  19984-3 0  9991
2 43070  86.4017 203.4670 0001756  83.8896 276.2499 14.34219392361338
IRIDIUM 138             
1 43071U 17083B   24321.42383419  .00000490  00000+0  16778-3 0  9994
2 43071  86.4007 203.1552 0002533  93.5288 266.6198 14.34219672361320
